<?xml version="1.0" encoding="UTF-8"?>
<kml xmlns="http://www.opengis.net/kml/2.2" xmlns:gx="http://www.google.com/kml/ext/2.2" xmlns:kml="http://www.opengis.net/kml/2.2" xmlns:atom="http://www.w3.org/2005/Atom">
<Document id="1Y8j6uAJ5QRgZREy6r_wRK0DarFGyeeIS">
	<name>Natural Joy</name>
	<StyleMap id="__managed_style_0BB3FC96F73F11491D7B">
		<Pair>
			<key>normal</key>
			<styleUrl>#__managed_style_13FF7088BC3F11491D7B</styleUrl>
		</Pair>
		<Pair>
			<key>highlight</key>
			<styleUrl>#__managed_style_06A3E6E7B53F11491D7C</styleUrl>
		</Pair>
	</StyleMap>
	<gx:CascadingStyle kml:id="__managed_style_06A3E6E7B53F11491D7C">
		<Style>
			<IconStyle>
				<scale>1.2</scale>
				<Icon>
					<href>https://earth.google.com/earth/document/icon?color=1976d2&amp;id=2000&amp;scale=4</href>
				</Icon>
				<hotSpot x="64" y="128" xunits="pixels" yunits="insetPixels"/>
			</IconStyle>
			<LabelStyle>
			</LabelStyle>
			<LineStyle>
				<color>ff6b7900</color>
				<width>2</width>
			</LineStyle>
			<PolyStyle>
				<color>406abb66</color>
			</PolyStyle>
			<BalloonStyle>
			</BalloonStyle>
		</Style>
	</gx:CascadingStyle>
	<gx:CascadingStyle kml:id="__managed_style_23EAB8A64C3F1132A9A9">
		<Style>
			<IconStyle>
				<scale>1.2</scale>
				<Icon>
					<href>https://earth.google.com/earth/document/icon?color=d32f2f&amp;id=2000&amp;scale=4</href>
				</Icon>
				<hotSpot x="64" y="128" xunits="pixels" yunits="insetPixels"/>
			</IconStyle>
			<LabelStyle>
				<color>ff2f2fd3</color>
			</LabelStyle>
			<LineStyle>
				<color>ff2dc0fb</color>
				<width>2</width>
			</LineStyle>
			<PolyStyle>
				<color>40ffffff</color>
			</PolyStyle>
			<BalloonStyle>
			</BalloonStyle>
		</Style>
	</gx:CascadingStyle>
	<gx:CascadingStyle kml:id="__managed_style_13FF7088BC3F11491D7B">
		<Style>
			<IconStyle>
				<Icon>
					<href>https://earth.google.com/earth/document/icon?color=1976d2&amp;id=2000&amp;scale=4</href>
				</Icon>
				<hotSpot x="64" y="128" xunits="pixels" yunits="insetPixels"/>
			</IconStyle>
			<LabelStyle>
			</LabelStyle>
			<LineStyle>
				<color>ff6b7900</color>
				<width>1.33333</width>
			</LineStyle>
			<PolyStyle>
				<color>406abb66</color>
			</PolyStyle>
			<BalloonStyle>
			</BalloonStyle>
		</Style>
	</gx:CascadingStyle>
	<gx:CascadingStyle kml:id="__managed_style_10FEBE7EE83F1132A9A9">
		<Style>
			<IconStyle>
				<Icon>
					<href>https://earth.google.com/earth/document/icon?color=d32f2f&amp;id=2000&amp;scale=4</href>
				</Icon>
				<hotSpot x="64" y="128" xunits="pixels" yunits="insetPixels"/>
			</IconStyle>
			<LabelStyle>
				<color>ff2f2fd3</color>
			</LabelStyle>
			<LineStyle>
				<color>ff2dc0fb</color>
				<width>1.33333</width>
			</LineStyle>
			<PolyStyle>
				<color>40ffffff</color>
			</PolyStyle>
			<BalloonStyle>
			</BalloonStyle>
		</Style>
	</gx:CascadingStyle>
	<StyleMap id="__managed_style_005E0FF7BC3F1132A9A9">
		<Pair>
			<key>normal</key>
			<styleUrl>#__managed_style_10FEBE7EE83F1132A9A9</styleUrl>
		</Pair>
		<Pair>
			<key>highlight</key>
			<styleUrl>#__managed_style_23EAB8A64C3F1132A9A9</styleUrl>
		</Pair>
	</StyleMap>
	<Placemark id="095F3106493F11210229">
		<name>1</name>
		<LookAt>
			<longitude>28.8986222</longitude>
			<latitude>28.2508861</latitude>
			<altitude>0</altitude>
			<heading>0</heading>
			<tilt>0</tilt>
			<gx:fovy>35</gx:fovy>
			<range>2303.211534605301</range>
			<altitudeMode>relativeToGround</altitudeMode>
		</LookAt>
		<styleUrl>#__managed_style_005E0FF7BC3F1132A9A9</styleUrl>
		<Point>
			<extrude>1</extrude>
			<coordinates>28.8986222,28.2508861,0</coordinates>
		</Point>
	</Placemark>
	<Placemark id="0998CF2BD23F112EA895">
		<name>2</name>
		<LookAt>
			<longitude>28.8995944</longitude>
			<latitude>28.2506389</latitude>
			<altitude>0</altitude>
			<heading>0</heading>
			<tilt>0</tilt>
			<gx:fovy>35</gx:fovy>
			<range>2303.217997447712</range>
			<altitudeMode>relativeToGround</altitudeMode>
		</LookAt>
		<styleUrl>#__managed_style_005E0FF7BC3F1132A9A9</styleUrl>
		<Point>
			<extrude>1</extrude>
			<coordinates>28.8995944,28.2506389,0</coordinates>
		</Point>
	</Placemark>
	<Placemark id="0C1F381C7F3F1125BF54">
		<name>3</name>
		<LookAt>
			<longitude>28.8990139</longitude>
			<latitude>28.2471556</latitude>
			<altitude>0</altitude>
			<heading>0</heading>
			<tilt>0</tilt>
			<gx:fovy>35</gx:fovy>
			<range>2303.309060521834</range>
			<altitudeMode>relativeToGround</altitudeMode>
		</LookAt>
		<styleUrl>#__managed_style_005E0FF7BC3F1132A9A9</styleUrl>
		<Point>
			<extrude>1</extrude>
			<coordinates>28.8990139,28.2471556,0</coordinates>
		</Point>
	</Placemark>
	<Placemark id="06D89B48523F1127A12C">
		<name>4</name>
		<LookAt>
			<longitude>28.89755</longitude>
			<latitude>28.2468861</latitude>
			<altitude>0</altitude>
			<heading>0</heading>
			<tilt>0</tilt>
			<gx:fovy>35</gx:fovy>
			<range>2303.316105609167</range>
			<altitudeMode>relativeToGround</altitudeMode>
		</LookAt>
		<styleUrl>#__managed_style_005E0FF7BC3F1132A9A9</styleUrl>
		<Point>
			<extrude>1</extrude>
			<coordinates>28.89755,28.2468861,0</coordinates>
		</Point>
	</Placemark>
	<Placemark id="0ACB6C92633F11290505">
		<name>5</name>
		<LookAt>
			<longitude>28.8952694</longitude>
			<latitude>28.2469361</latitude>
			<altitude>0</altitude>
			<heading>0</heading>
			<tilt>0</tilt>
			<gx:fovy>35</gx:fovy>
			<range>2303.314798547065</range>
			<altitudeMode>relativeToGround</altitudeMode>
		</LookAt>
		<styleUrl>#__managed_style_005E0FF7BC3F1132A9A9</styleUrl>
		<Point>
			<extrude>1</extrude>
			<coordinates>28.8952694,28.2469361,0</coordinates>
		</Point>
	</Placemark>
	<Placemark id="09B5C141753F112A283E">
		<name>6</name>
		<LookAt>
			<longitude>28.89507500000001</longitude>
			<latitude>28.2480028</latitude>
			<altitude>0</altitude>
			<heading>0</heading>
			<tilt>0</tilt>
			<gx:fovy>35</gx:fovy>
			<range>2303.286913229117</range>
			<altitudeMode>relativeToGround</altitudeMode>
		</LookAt>
		<styleUrl>#__managed_style_005E0FF7BC3F1132A9A9</styleUrl>
		<Point>
			<extrude>1</extrude>
			<coordinates>28.895075,28.2480028,0</coordinates>
		</Point>
	</Placemark>
	<Placemark id="050B0832253F112AFE93">
		<name>7</name>
		<LookAt>
			<longitude>28.895225</longitude>
			<latitude>28.2483806</latitude>
			<altitude>0</altitude>
			<heading>0</heading>
			<tilt>0</tilt>
			<gx:fovy>35</gx:fovy>
			<range>2303.277036698229</range>
			<altitudeMode>relativeToGround</altitudeMode>
		</LookAt>
		<styleUrl>#__managed_style_005E0FF7BC3F1132A9A9</styleUrl>
		<Point>
			<extrude>1</extrude>
			<coordinates>28.895225,28.2483806,0</coordinates>
		</Point>
	</Placemark>
	<Placemark id="0DCB0F142C3F112BE725">
		<name>8</name>
		<LookAt>
			<longitude>28.8963694</longitude>
			<latitude>28.2498444</latitude>
			<altitude>0</altitude>
			<heading>0</heading>
			<tilt>0</tilt>
			<gx:fovy>35</gx:fovy>
			<range>2303.23876868616</range>
			<altitudeMode>relativeToGround</altitudeMode>
		</LookAt>
		<styleUrl>#__managed_style_005E0FF7BC3F1132A9A9</styleUrl>
		<Point>
			<extrude>1</extrude>
			<coordinates>28.8963694,28.24984439999999,0</coordinates>
		</Point>
	</Placemark>
	<Placemark id="0FAA0AD7613F112D545E">
		<name>9</name>
		<LookAt>
			<longitude>28.8982833</longitude>
			<latitude>28.2495917</latitude>
			<altitude>0</altitude>
			<heading>0</heading>
			<tilt>0</tilt>
			<gx:fovy>35</gx:fovy>
			<range>2303.245375119948</range>
			<altitudeMode>relativeToGround</altitudeMode>
		</LookAt>
		<styleUrl>#__managed_style_005E0FF7BC3F1132A9A9</styleUrl>
		<Point>
			<extrude>1</extrude>
			<coordinates>28.8982833,28.2495917,0</coordinates>
		</Point>
	</Placemark>
	<Placemark id="076F673D813F1147F6E7">
		<name>Land Area</name>
		<LookAt>
			<longitude>28.89883088131136</longitude>
			<latitude>28.2495664426221</latitude>
			<altitude>139.1225735786924</altitude>
			<heading>359.9999999999969</heading>
			<tilt>0</tilt>
			<gx:fovy>30</gx:fovy>
			<range>845.9981373991468</range>
			<altitudeMode>absolute</altitudeMode>
		</LookAt>
		<styleUrl>#__managed_style_0BB3FC96F73F11491D7B</styleUrl>
		<Polygon>
			<outerBoundaryIs>
				<LinearRing>
					<coordinates>
						28.89828267304482,28.24961145690741,0 28.89636852242325,28.24986310212627,0 28.89522288779925,28.24839843981465,0 28.89507473477683,28.24802831594489,0 28.89527012010879,28.24696327821284,0 28.89754949380792,28.24690941071147,0 28.89901138142328,28.24717793333131,0 28.89960020295369,28.25066504838496,0 28.89862146856959,28.25090952796792,0 28.89828267304482,28.24961145690741,0 
					</coordinates>
				</LinearRing>
			</outerBoundaryIs>
		</Polygon>
	</Placemark>
</Document>
</kml>
